FLOCK 3P-75             
1 41979U 17008AH  17339.90929617  .00004497  00000-0  19076-3 0  9992
2 41979  97.4781  40.8150 0007232 322.4845  37.5886 15.23606830 44669
FLOCK 3P-70             
1 41980U 17008AJ  17339.84189044  .00003007  00000-0  12862-3 0  9991
2 41980  97.4783  40.7547 0007189 322.1636  37.9095 15.23598661 44497
FLOCK 3P-73             
1 41981U 17008AK  17339.85071721  .00001078  00000-0  48086-4 0  9999
2 41981  97.4786  40.7441 0007471 323.0002  37.0718 15.23563637 44639
FLOCK 3P-88             
1 41982U 17008AL  17339.90489849  .00004509  00000-0  19104-3 0  9990
2 41982  97.4779  40.8138 0007256 322.4015  37.6714 15.23648539 43618
FLOCK 3P-85             
1 41983U 17008AM  17340.48171134  .00002875  00000-0  12294-3 0  9998
2 41983  97.4783  41.4297 0007197 323.9776  36.0975 15.23643878 44604
FLOCK 3P-79             
1 41984U 17008AN  17340.41686065  .00004709  00000-0  19905-3 0  9990
2 41984  97.4781  41.3623 0006891 324.6015  35.4764 15.23702178 44595
FLOCK 3P-86             
1 41985U 17008AP  17340.48362616  .00004606  00000-0  19484-3 0  9999
2 41985  97.4781  41.4209 0006819 323.5085  36.5686 15.23689140 44590
FLOCK 3P-36             
1 41986U 17008AQ  17340.42069014  .00005121  00000-0  21636-3 0  9995
2 41986  97.4765  41.2824 0006558 321.4385  38.6382 15.23677690 44070
FLOCK 3P-30             
1 41987U 17008AR  17339.88598514  .00001968  00000-0  85101-4 0  9999
2 41987  97.4768  40.7719 0006551 325.0822  34.9984 15.23646049 44464
FLOCK 3P-34             
1 41988U 17008AS  17340.16119565  .00004679  00000-0  19784-3 0  9993
2 41988  97.4759  41.0016 0006563 319.3020  40.7726 15.23700341 44036
FLOCK 3P-35             
1 41989U 17008AT  17339.90108036  .00004583  00000-0  19407-3 0  9991
2 41989  97.4760  40.7351 0006751 320.2379  39.8362 15.23657494 43993
FLOCK 3P-33             
1 41990U 17008AU  17340.15898882  .00004591  00000-0  19425-3 0  9996
2 41990  97.4760  41.0091 0006389 320.8961  39.1813 15.23684754 44039
LEMUR-2-SATCHMO         
1 41991U 17008AV  17340.16910268  .00001239  00000-0  55956-4 0  9997
2 41991  97.4755  40.8308 0006760 324.3436  35.7348 15.22841208 44023
LEMUR-2-MIA-GRACE       
1 41992U 17008AW  17340.38925665  .00002192  00000-0  95488-4 0  9992
2 41992  97.4756  41.1596 0006617 323.7437  36.3350 15.23275381 44061
LEMUR-2-SMITA-SHARAD    
1 41993U 17008AX  17340.47684448  .00001497  00000-0  66680-4 0  9993
2 41993  97.4755  41.1876 0006689 323.1908  36.8869 15.23004300 44070
LEMUR-2-SPIRE-MINIONS   
1 41994U 17008AY  17340.13447462  .00002111  00000-0  92155-4 0  9990
2 41994  97.4754  40.8793 0006671 323.7628  36.3156 15.23234035 44029
LEMUR-2-RDEATON         
1 41995U 17008AZ  17340.14173369  .00001422  00000-0  63376-4 0  9991
2 41995  97.4756  40.8730 0008103 338.0146  22.0742 15.23057283 44705
LEMUR-2-NOGUECORREIG    
1 41996U 17008BA  17339.92360212  .00001507  00000-0  66633-4 0  9994
2 41996  97.4764  40.7118 0008004 339.2565  20.8346 15.23252543 43893
LEMUR-2-JOBANPUTRA      
1 41997U 17008BB  17340.16611038  .00001389  00000-0  61412-4 0  9996
2 41997  97.4763  41.0022 0007940 338.2496  21.8403 15.23386128 44029
LEMUR-2-TACHIKOMA       
1 41998U 17008BC  17339.95086638  .00001439  00000-0  64289-4 0  9995
2 41998  97.4756  40.6664 0008057 339.3735  20.7175 15.22956425 43910
BGUSAT                  
1 41999U 17008BD  17340.80075378  .00002599  00000-0  11119-3 0  9992
2 41999  97.4769  41.7026 0007998 338.9694  21.1088 15.23712394 44129
DIDO-2                  
1 42000U 17008BE  17340.42564891  .00001188  00000-0  53883-4 0  9995
2 42000  97.4752  41.0992 0008037 338.4518  21.6379 15.22773874 44065
FLOCK 3P-49             
1 42001U 17008BF  17340.14509925  .00001652  00000-0  71879-4 0  9993
2 42001  97.4763  41.0311 0007489 340.4141  19.6807 15.23666201 44551
FLOCK 3P-67             
1 42002U 17008BG  17340.41057635  .00002861  00000-0  12192-3 0  9995
2 42002  97.4760  41.2831 0007362 338.3462  21.7462 15.23754629 44755
FLOCK 3P-68             
1 42003U 17008BH  17340.41545978  .00004796  00000-0  20264-3 0  9996
2 42003  97.4758  41.2715 0007518 337.0139  23.0760 15.23700962 44391
FLOCK 3P-41             
1 42004U 17008BJ  17339.87785940  .00003130  00000-0  13352-3 0  9991
2 42004  97.4760  40.7582 0007368 341.6010  18.4959 15.23656774 44516
FLOCK 3P-45             
1 42005U 17008BK  17340.47182487  .00003134  00000-0  13326-3 0  9992
2 42005  97.4761  41.3537 0007281 339.4486  20.6457 15.23760274 44756
FLOCK 3P-48             
1 42006U 17008BL  17340.47208468  .00004729  00000-0  20002-3 0  9991
2 42006  97.4763  41.3599 0007235 340.6141  19.4819 15.23677511 44544
FLOCK 3P-43             
1 42007U 17008BM  17340.40498210  .00001041  00000-0  46483-4 0  9997
2 42007  97.4764  41.2850 0007147 340.8309  19.2658 15.23615461 44742
FLOCK 3P-42             
1 42008U 17008BN  17339.74758385  .00003718  00000-0  15821-3 0  9999
2 42008  97.4759  40.6254 0007274 343.0453  17.0540 15.23610558 44573
FLOCK 3P-61             
1 42009U 17008BP  17339.74623879  .00001095  00000-0  48789-4 0  9995
2 42009  97.4764  40.6328 0007269 345.4764  14.6262 15.23574230 44623
FLOCK 3P-40             
1 42010U 17008BQ  17339.80543637  .00001248  00000-0  55168-4 0  9996
2 42010  97.4758  40.6859 0007226 346.2385  13.8654 15.23565448 43893
FLOCK 3P-16             
1 42011U 17008BR  17339.92475520  .00001645  00000-0  71811-4 0  9999
2 42011  97.4758  40.8361 0006933 346.8641  13.2414 15.23560836 43859
FLOCK 3P-14             
1 42012U 17008BS  17339.86141643  .00002162  00000-0  93095-4 0  9992
2 42012  97.4764  40.7824 0007070 348.8666  11.2413 15.23676830 44469
FLOCK 3P-53             
1 42013U 17008BT  17340.38998373  .00001516  00000-0  66140-4 0  9995
2 42013  97.4753  41.2709 0006907 345.4422  14.6615 15.23687921 44540
FLOCK 3P-54             
1 42014U 17008BU  17340.45667464  .00001347  00000-0  59365-4 0  9991
2 42014  97.4759  41.3513 0006864 346.0657  14.0389 15.23552070 44728
PEASSS                  
1 42015U 17008BV  17339.90966261  .00001359  00000-0  59940-4 0  9999
2 42015  97.4746  40.8304 0006203 352.6191   7.4954 15.23493632 44485
AL-FARABI 1             
1 42016U 17008BW  17340.47208417  .00001957  00000-0  84295-4 0  9991
2 42016  97.4747  41.4693 0005998 351.5003   8.6131 15.23785422 44699
NAYIF-1 (EO-88)         
1 42017U 17008BX  17340.46906163  .00001966  00000-0  84614-4 0  9999
2 42017  97.4746  41.4706 0006001 351.8998   8.2141 15.23804010 44711
FLOCK 3P-23             
1 42018U 17008BY  17340.19281015  .00001313  00000-0  57966-4 0  9998
2 42018  97.4754  40.9280 0007454 315.3898  44.6738 15.23533927 43484
FLOCK 3P-76             
1 42019U 17008BZ  17340.16188801  .00004375  00000-0  18527-3 0  9995
2 42019  97.4782  41.0996 0007289 323.2674  36.8063 15.23675549 44547
FLOCK 3P-69             
1 42020U 17008CA  17339.89787770  .00004493  00000-0  19024-3 0  9999
2 42020  97.4784  40.8389 0007106 323.0652  37.0095 15.23671114 43390
FLOCK 3P-84             
1 42021U 17008CB  17339.90718923  .00004457  00000-0  18910-3 0  9999
2 42021  97.4780  40.8101 0007519 322.1451  37.9257 15.23605269 44516
FLOCK 3P-59             
1 42022U 17008CC  17340.43327489  .00003136  00000-0  13362-3 0  9992
2 42022  97.4759  41.2529 0006882 321.1364  38.9377 15.23688777 43615
FLOCK 3P-32             
1 42023U 17008CD  17339.77964679  .00001393  00000-0  61226-4 0  9992
2 42023  97.4764  40.5969 0006861 319.5826  40.4900 15.23584777 44653
FLOCK 3P-71             
1 42024U 17008CE  17339.86263517  .00002977  00000-0  12749-3 0  9990
2 42024  97.4787  40.7394 0007385 324.4071  35.6673 15.23559915 43537
FLOCK 3P-77             
1 42025U 17008CF  17339.90030660  .00004631  00000-0  19599-3 0  9996
2 42025  97.4782  40.8264 0007208 324.6655  35.4103 15.23671925 44515
FLOCK 3P-80             
1 42026U 17008CG  17339.95010818  .00003864  00000-0  16389-3 0  9996
2 42026  97.4781  40.9084 0006815 325.5058  34.5736 15.23704466 42669
FLOCK 3P-66             
1 42027U 17008CH  17340.15168474  .00001637  00000-0  71225-4 0  9990
2 42027  97.4763  41.0225 0007470 336.9953  23.0948 15.23682711 44665
FLOCK 3P-65             
1 42028U 17008CJ  17340.47830973  .00004598  00000-0  19445-3 0  9990
2 42028  97.4761  41.3514 0007354 336.6981  23.3921 15.23700198 44616
FLOCK 3P-50             
1 42029U 17008CK  17340.47472352  .00004930  00000-0  20832-3 0  9996
2 42029  97.4764  41.3643 0007259 339.3576  20.7367 15.23690188 43933
FLOCK 3P-52             
1 42030U 17008CL  17339.95087462  .00001410  00000-0  61824-4 0  9990
2 42030  97.4765  40.8259 0007399 340.1599  19.9349 15.23649137 44628
FLOCK 3P-46             
1 42031U 17008CM  17340.14285041  .00001565  00000-0  68258-4 0  9996
2 42031  97.4757  41.0211 0007218 340.4702  19.6257 15.23663498 44687
FLOCK 3P-47             
1 42032U 17008CN  17340.47286919  .00001885  00000-0  81584-4 0  9990
2 42032  97.4758  41.3448 0007252 340.3441  19.7515 15.23662216 44585
FLOCK 3P-44             
1 42033U 17008CP  17340.46632600  .00000900  00000-0  40599-4 0  9990
2 42033  97.4765  41.3620 0007311 343.0367  17.0625 15.23599127 43334
FLOCK 3P-64             
1 42034U 17008CQ  17340.40086777  .00001359  00000-0  59818-4 0  9996
2 42034  97.4761  41.2812 0007204 342.7282  17.3708 15.23565913 44743
FLOCK 3P-63             
1 42035U 17008CR  17339.93838960  .00001372  00000-0  60334-4 0  9992
2 42035  97.4759  40.8216 0007255 344.3558  15.7453 15.23592618 42642
FLOCK 3P-62             
1 42036U 17008CS  17340.44643775  .00003053  00000-0  12963-3 0  9991
2 42036  97.4757  41.3747 0007239 344.3488  15.7524 15.23835511 43923
FLOCK 3P-38             
1 42037U 17008CT  17340.46246023  .00001271  00000-0  56143-4 0  9998
2 42037  97.4760  41.3490 0006947 343.8314  16.2700 15.23580820 44709
